{
  "type": "FeatureCollection",
  "features": [
    {
      "type": "Feature",
      "properties": {
        "norad_id": 66611,
        "name": "STARLINK-35583",
        "group": "last-30-days",
        "lat": -17.51975076132986,
        "lon": -144.2123573916138,
        "alt_km": 342.60435009149296,
        "timestamp": "2025-12-05T11:32:54.810721+00:00",
        "meta_object_name": "STARLINK-35583",
        "meta_object_id": "2025-270Z",
        "meta_epoch": "2025-12-04T15:52:57.683136",
        "meta_mean_motion": 15.75290299,
        "meta_eccentricity": 0.0002707,
        "meta_inclination": 42.9979,
        "meta_ra_of_asc_node": 240.5686,
        "meta_arg_of_pericenter": 258.8911,
        "meta_mean_anomaly": 101.1654,
        "meta_ephemeris_type": 0,
        "meta_classification_type": "U",
        "meta_norad_cat_id": 66611,
        "meta_element_set_no": 999,
        "meta_rev_at_epoch": 319,
        "meta_bstar": 0.0031127,
        "meta_mean_motion_dot": 0.00513526,
        "meta_mean_motion_ddot": 0,
        "tle_line1": "1 66611U 25270Z   25338.66177874  .00513526  00000+0  31127-2 0  9990",
        "tle_line2": "2 66611  42.9979 240.5686 0002707 258.8911 101.1654 15.75290299  3193"
      },
      "geometry": {
        "type": "Point",
        "coordinates": [
          -144.2123573916138,
          -17.51975076132986
        ]
      }
    },
    {
      "type": "Feature",
      "properties": {
        "norad_id": 66612,
        "name": "STARLINK-36039",
        "group": "last-30-days",
        "lat": -14.037979412511245,
        "lon": -139.98717044083853,
        "alt_km": 343.75272793882596,
        "timestamp": "2025-12-05T11:32:54.810731+00:00",
        "meta_object_name": "STARLINK-36039",
        "meta_object_id": "2025-270AA",
        "meta_epoch": "2025-12-04T17:22:49.247904",
        "meta_mean_motion": 15.75226148,
        "meta_eccentricity": 0.0002334,
        "meta_inclination": 42.9979,
        "meta_ra_of_asc_node": 240.1763,
        "meta_arg_of_pericenter": 219.2199,
        "meta_mean_anomaly": 140.8501,
        "meta_ephemeris_type": 0,
        "meta_classification_type": "U",
        "meta_norad_cat_id": 66612,
        "meta_element_set_no": 999,
        "meta_rev_at_epoch": 309,
        "meta_bstar": 0.0031974,
        "meta_mean_motion_dot": 0.00526889,
        "meta_mean_motion_ddot": 0,
        "tle_line1": "1 66612U 25270AA  25338.72418111  .00526889  00000+0  31974-2 0  9996",
        "tle_line2": "2 66612  42.9979 240.1763 0002334 219.2199 140.8501 15.75226148  3093"
      },
      "geometry": {
        "type": "Point",
        "coordinates": [
          -139.98717044083853,
          -14.037979412511245
        ]
      }
    },
    {
      "type": "Feature",
      "properties": {
        "norad_id": 66613,
        "name": "STARLINK-36037",
        "group": "last-30-days",
        "lat": -4.306417733537746,
        "lon": -129.0995265897549,
        "alt_km": 333.99359137153897,
        "timestamp": "2025-12-05T11:32:54.810744+00:00",
        "meta_object_name": "STARLINK-36037",
        "meta_object_id": "2025-270AB",
        "meta_epoch": "2025-12-03T10:57:19.045152",
        "meta_mean_motion": 15.77412165,
        "meta_eccentricity": 0.0004122,
        "meta_inclination": 43.0001,
        "meta_ra_of_asc_node": 247.8703,
        "meta_arg_of_pericenter": 349.4174,
        "meta_mean_anomaly": 10.6608,
        "meta_ephemeris_type": 0,
        "meta_classification_type": "U",
        "meta_norad_cat_id": 66613,
        "meta_element_set_no": 999,
        "meta_rev_at_epoch": 289,
        "meta_bstar": 0.00072767216,
        "meta_mean_motion_dot": 0.00125531,
        "meta_mean_motion_ddot": 0,
        "tle_line1": "1 66613U 25270AB  25337.45647043  .00125531  00000+0  72767-3 0  9999",
        "tle_line2": "2 66613  43.0001 247.8703 0004122 349.4174  10.6608 15.77412165  2893"
      },
      "geometry": {
        "type": "Point",
        "coordinates": [
          -129.0995265897549,
          -4.306417733537746
        ]
      }
    },
    {
      "type": "Feature",
      "properties": {
        "norad_id": 66614,
        "name": "STARLINK-36040",
        "group": "last-30-days",
        "lat": -11.921999961011545,
        "lon": -137.52722207588587,
        "alt_km": 341.2312695847604,
        "timestamp": "2025-12-05T11:32:54.810755+00:00",
        "meta_object_name": "STARLINK-36040",
        "meta_object_id": "2025-270AC",
        "meta_epoch": "2025-12-04T15:51:01.032768",
        "meta_mean_motion": 15.75376134,
        "meta_eccentricity": 0.000319,
        "meta_inclination": 42.9982,
        "meta_ra_of_asc_node": 240.5572,
        "meta_arg_of_pericenter": 243.2754,
        "meta_mean_anomaly": 116.7789,
        "meta_ephemeris_type": 0,
        "meta_classification_type": "U",
        "meta_norad_cat_id": 66614,
        "meta_element_set_no": 999,
        "meta_rev_at_epoch": 292,
        "meta_bstar": 0.0047436,
        "meta_mean_motion_dot": 0.00814786,
        "meta_mean_motion_ddot": 0,
        "tle_line1": "1 66614U 25270AC  25338.66042862  .00814786  00000+0  47436-2 0  9993",
        "tle_line2": "2 66614  42.9982 240.5572 0003190 243.2754 116.7789 15.75376134  2928"
      },
      "geometry": {
        "type": "Point",
        "coordinates": [
          -137.52722207588587,
          -11.921999961011545
        ]
      }
    },
    {
      "type": "Feature",
      "properties": {
        "norad_id": 66615,
        "name": "STARLINK-35988",
        "group": "last-30-days",
        "lat": -1.8398595400305562,
        "lon": -126.44523290706182,
        "alt_km": 332.173263326099,
        "timestamp": "2025-12-05T11:32:54.810765+00:00",
        "meta_object_name": "STARLINK-35988",
        "meta_object_id": "2025-270AD",
        "meta_epoch": "2025-12-04T00:37:22.745280",
        "meta_mean_motion": 15.77540776,
        "meta_eccentricity": 0.0012646,
        "meta_inclination": 42.9993,
        "meta_ra_of_asc_node": 244.4008,
        "meta_arg_of_pericenter": 273.4991,
        "meta_mean_anomaly": 86.4432,
        "meta_ephemeris_type": 0,
        "meta_classification_type": "U",
        "meta_norad_cat_id": 66615,
        "meta_element_set_no": 999,
        "meta_rev_at_epoch": 282,
        "meta_bstar": 0.0020154804,
        "meta_mean_motion_dot": 0.00361862,
        "meta_mean_motion_ddot": 0,
        "tle_line1": "1 66615U 25270AD  25338.02595770  .00361862  00000+0  20155-2 0  9996",
        "tle_line2": "2 66615  42.9993 244.4008 0012646 273.4991  86.4432 15.77540776  2826"
      },
      "geometry": {
        "type": "Point",
        "coordinates": [
          -126.44523290706182,
          -1.8398595400305562
        ]
      }
    },
    {
      "type": "Feature",
      "properties": {
        "norad_id": 66616,
        "name": "STARLINK-35391",
        "group": "last-30-days",
        "lat": -11.019257094354227,
        "lon": -136.49552784349206,
        "alt_km": 341.9663239988831,
        "timestamp": "2025-12-05T11:32:54.810775+00:00",
        "meta_object_name": "STARLINK-35391",
        "meta_object_id": "2025-270AE",
        "meta_epoch": "2025-12-04T15:50:31.921152",
        "meta_mean_motion": 15.75307579,
        "meta_eccentricity": 0.0002796,
        "meta_inclination": 42.9976,
        "meta_ra_of_asc_node": 240.5563,
        "meta_arg_of_pericenter": 246.6155,
        "meta_mean_anomaly": 113.4421,
        "meta_ephemeris_type": 0,
        "meta_classification_type": "U",
        "meta_norad_cat_id": 66616,
        "meta_element_set_no": 999,
        "meta_rev_at_epoch": 319,
        "meta_bstar": 0.0038519,
        "meta_mean_motion_dot": 0.00646333,
        "meta_mean_motion_ddot": 0,
        "tle_line1": "1 66616U 25270AE  25338.66009168  .00646333  00000+0  38519-2 0  9990",
        "tle_line2": "2 66616  42.9976 240.5563 0002796 246.6155 113.4421 15.75307579  3190"
      },
      "geometry": {
        "type": "Point",
        "coordinates": [
          -136.49552784349206,
          -11.019257094354227
        ]
      }
    },
    {
      "type": "Feature",
      "properties": {
        "norad_id": 66617,
        "name": "STARLINK-35940",
        "group": "last-30-days",
        "lat": -27.195863033387333,
        "lon": 65.4139335073527,
        "alt_km": 333.3125787062618,
        "timestamp": "2025-12-05T11:32:54.810787+00:00",
        "meta_object_name": "STARLINK-35940",
        "meta_object_id": "2025-271A",
        "meta_epoch": "2025-12-04T07:20:17.054880",
        "meta_mean_motion": 15.8184412,
        "meta_eccentricity": 6.78e-05,
        "meta_inclination": 53.1574,
        "meta_ra_of_asc_node": 228.6482,
        "meta_arg_of_pericenter": 40.0862,
        "meta_mean_anomaly": 320.0211,
        "meta_ephemeris_type": 0,
        "meta_classification_type": "U",
        "meta_norad_cat_id": 66617,
        "meta_element_set_no": 999,
        "meta_rev_at_epoch": 288,
        "meta_bstar": -0.0029443,
        "meta_mean_motion_dot": -0.00570206,
        "meta_mean_motion_ddot": 0,
        "tle_line1": "1 66617U 25271A   25338.30575295 -.00570206  00000+0 -29443-2 0  9995",
        "tle_line2": "2 66617  53.1574 228.6482 0000678  40.0862 320.0211 15.81844120  2887"
      },
      "geometry": {
        "type": "Point",
        "coordinates": [
          65.4139335073527,
          -27.195863033387333
        ]
      }
    }
  ]
}